ONEWEB-0186             
1 48229U 21031V   26117.27046479  .00000250  00000+0  64001-3 0  9998
2 48229  87.8928 299.8554 0001604  91.1843 268.9470 13.14503043241690
ONEWEB-0181             
1 48230U 21031W   26117.24826935  .00000085  00000+0  19359-3 0  9992
2 48230  87.8914 299.8965 0001559  87.5714 272.5594 13.14502713241543
ONEWEB-0188             
1 48231U 21031X   26117.21021216 -.00000057  00000+0 -18925-3 0  9998
2 48231  87.8918 299.9024 0001688  92.2330 267.8994 13.14501961241449
ONEWEB-0220             
1 48232U 21031Y   26117.24983934  .00000075  00000+0  16744-3 0  9991
2 48232  87.8931 299.8601 0001512  95.2405 264.8898 13.14504153241713
ONEWEB-0165             
1 48233U 21031Z   26117.20227126  .00000111  00000+0  26370-3 0  9999
2 48233  87.8928 299.8856 0001529  80.0335 280.0967 13.14504210241669
ONEWEB-0199             
1 48234U 21031AA  26117.26253576  .00000161  00000+0  40003-3 0  9998
2 48234  87.8931 299.8566 0001914  93.9349 266.2000 13.14503773241575
ONEWEB-0203             
1 48235U 21031AB  26117.25302099  .00000230  00000+0  58614-3 0  9997
2 48235  87.8934 299.8609 0001813  87.2844 272.8494 13.14503348241580
ONEWEB-0197             
1 48236U 21031AC  26117.22750276 -.00000198  00000+0 -56933-3 0  9996
2 48236  87.8921 299.8583 0001777 102.6333 257.4995 13.14503555241497
ONEWEB-0194             
1 48237U 21031AD  26117.20702996  .00000012  00000+0 -11855-5 0  9991
2 48237  87.8928 299.8819 0001961  89.3085 270.8270 13.14502895241667
ONEWEB-0193             
1 48238U 21031AE  26117.22288803 -.00000190  00000+0 -54683-3 0  9992
2 48238  87.8926 299.8697 0002184  89.3763 270.7618 13.14503211241614
ONEWEB-0191             
1 48239U 21031AF  26117.23399252 -.00000159  00000+0 -46431-3 0  9992
2 48239  87.8928 299.8643 0001743  98.1916 261.9412 13.14503343241470
ONEWEB-0195             
1 48240U 21031AG  26117.21100565 -.00000106  00000+0 -32143-3 0  9996
2 48240  87.8938 299.8672 0001468  80.0465 280.0830 13.14502012241454
ONEWEB-0201             
1 48241U 21031AH  26117.19923397  .00000163  00000+0  40630-3 0  9991
2 48241  87.8918 299.8921 0001393 102.5351 257.5935 13.14504291241682
ONEWEB-0207             
1 48242U 21031AJ  26117.25539730  .00000248  00000+0  63561-3 0  9995
2 48242  87.8936 299.8604 0001569  99.7087 260.4220 13.14503247241601
ONEWEB-0208             
1 48243U 21031AK  26117.23716510 -.00000092  00000+0 -28264-3 0  9997
2 48243  87.8927 299.8731 0001550  80.7436 279.3869 13.14499078241616
ONEWEB-0200             
1 48244U 21031AL  26117.20068851  .00000057  00000+0  12010-3 0  9994
2 48244  87.8925 299.8676 0001621  90.1452 269.9863 13.14502357241530
