[{"OBJECT_NAME":"ONEWEB-0186","OBJECT_ID":"2021-031V","EPOCH":"2026-04-27T06:29:28.157856","MEAN_MOTION":13.14503043,"ECCENTRICITY":0.0001604,"INCLINATION":87.8928,"RA_OF_ASC_NODE":299.8554,"ARG_OF_PERICENTER":91.1843,"MEAN_ANOMALY":268.947,"EPHEMERIS_TYPE":0,"CLASSIFICATION_TYPE":"U","NORAD_CAT_ID":48229,"ELEMENT_SET_NO":999,"REV_AT_EPOCH":24169,"BSTAR":0.00064001,"MEAN_MOTION_DOT":2.5e-06,"MEAN_MOTION_DDOT":0.0},{"OBJECT_NAME":"ONEWEB-0181","OBJECT_ID":"2021-031W","EPOCH":"2026-04-27T05:57:30.471840","MEAN_MOTION":13.14502713,"ECCENTRICITY":0.0001559,"INCLINATION":87.8914,"RA_OF_ASC_NODE":299.8965,"ARG_OF_PERICENTER":87.5714,"MEAN_ANOMALY":272.5594,"EPHEMERIS_TYPE":0,"CLASSIFICATION_TYPE":"U","NORAD_CAT_ID":48230,"ELEMENT_SET_NO":999,"REV_AT_EPOCH":24154,"BSTAR":0.00019359000000000002,"MEAN_MOTION_DOT":8.5e-07,"MEAN_MOTION_DDOT":0.0},{"OBJECT_NAME":"ONEWEB-0188","OBJECT_ID":"2021-031X","EPOCH":"2026-04-27T05:02:42.330624","MEAN_MOTION":13.14501961,"ECCENTRICITY":0.0001688,"INCLINATION":87.8918,"RA_OF_ASC_NODE":299.9024,"ARG_OF_PERICENTER":92.233,"MEAN_ANOMALY":267.8994,"EPHEMERIS_TYPE":0,"CLASSIFICATION_TYPE":"U","NORAD_CAT_ID":48231,"ELEMENT_SET_NO":999,"REV_AT_EPOCH":24144,"BSTAR":-0.00018925,"MEAN_MOTION_DOT":-5.7e-07,"MEAN_MOTION_DDOT":0.0},{"OBJECT_NAME":"ONEWEB-0220","OBJECT_ID":"2021-031Y","EPOCH":"2026-04-27T05:59:46.118976","MEAN_MOTION":13.14504153,"ECCENTRICITY":0.0001512,"INCLINATION":87.8931,"RA_OF_ASC_NODE":299.8601,"ARG_OF_PERICENTER":95.2405,"MEAN_ANOMALY":264.8898,"EPHEMERIS_TYPE":0,"CLASSIFICATION_TYPE":"U","NORAD_CAT_ID":48232,"ELEMENT_SET_NO":999,"REV_AT_EPOCH":24171,"BSTAR":0.00016744,"MEAN_MOTION_DOT":7.5e-07,"MEAN_MOTION_DDOT":0.0},{"OBJECT_NAME":"ONEWEB-0165","OBJECT_ID":"2021-031Z","EPOCH":"2026-04-27T04:51:16.236864","MEAN_MOTION":13.1450421,"ECCENTRICITY":0.0001529,"INCLINATION":87.8928,"RA_OF_ASC_NODE":299.8856,"ARG_OF_PERICENTER":80.0335,"MEAN_ANOMALY":280.0967,"EPHEMERIS_TYPE":0,"CLASSIFICATION_TYPE":"U","NORAD_CAT_ID":48233,"ELEMENT_SET_NO":999,"REV_AT_EPOCH":24166,"BSTAR":0.0002637,"MEAN_MOTION_DOT":1.11e-06,"MEAN_MOTION_DDOT":0.0},{"OBJECT_NAME":"ONEWEB-0199","OBJECT_ID":"2021-031AA","EPOCH":"2026-04-27T06:18:03.089664","MEAN_MOTION":13.14503773,"ECCENTRICITY":0.0001914,"INCLINATION":87.8931,"RA_OF_ASC_NODE":299.8566,"ARG_OF_PERICENTER":93.9349,"MEAN_ANOMALY":266.2,"EPHEMERIS_TYPE":0,"CLASSIFICATION_TYPE":"U","NORAD_CAT_ID":48234,"ELEMENT_SET_NO":999,"REV_AT_EPOCH":24157,"BSTAR":0.00040003,"MEAN_MOTION_DOT":1.61e-06,"MEAN_MOTION_DDOT":0.0},{"OBJECT_NAME":"ONEWEB-0203","OBJECT_ID":"2021-031AB","EPOCH":"2026-04-27T06:04:21.013536","MEAN_MOTION":13.14503348,"ECCENTRICITY":0.0001813,"INCLINATION":87.8934,"RA_OF_ASC_NODE":299.8609,"ARG_OF_PERICENTER":87.2844,"MEAN_ANOMALY":272.8494,"EPHEMERIS_TYPE":0,"CLASSIFICATION_TYPE":"U","NORAD_CAT_ID":48235,"ELEMENT_SET_NO":999,"REV_AT_EPOCH":24158,"BSTAR":0.00058614,"MEAN_MOTION_DOT":2.3e-06,"MEAN_MOTION_DDOT":0.0},{"OBJECT_NAME":"ONEWEB-0197","OBJECT_ID":"2021-031AC","EPOCH":"2026-04-27T05:27:36.238464","MEAN_MOTION":13.14503555,"ECCENTRICITY":0.0001777,"INCLINATION":87.8921,"RA_OF_ASC_NODE":299.8583,"ARG_OF_PERICENTER":102.6333,"MEAN_ANOMALY":257.4995,"EPHEMERIS_TYPE":0,"CLASSIFICATION_TYPE":"U","NORAD_CAT_ID":48236,"ELEMENT_SET_NO":999,"REV_AT_EPOCH":24149,"BSTAR":-0.00056933,"MEAN_MOTION_DOT":-1.98e-06,"MEAN_MOTION_DDOT":0.0},{"OBJECT_NAME":"ONEWEB-0194","OBJECT_ID":"2021-031AD","EPOCH":"2026-04-27T04:58:07.388544","MEAN_MOTION":13.14502895,"ECCENTRICITY":0.0001961,"INCLINATION":87.8928,"RA_OF_ASC_NODE":299.8819,"ARG_OF_PERICENTER":89.3085,"MEAN_ANOMALY":270.827,"EPHEMERIS_TYPE":0,"CLASSIFICATION_TYPE":"U","NORAD_CAT_ID":48237,"ELEMENT_SET_NO":999,"REV_AT_EPOCH":24166,"BSTAR":-1.1855000000000001e-06,"MEAN_MOTION_DOT":1.2e-07,"MEAN_MOTION_DDOT":0.0},{"OBJECT_NAME":"ONEWEB-0193","OBJECT_ID":"2021-031AE","EPOCH":"2026-04-27T05:20:57.525792","MEAN_MOTION":13.14503211,"ECCENTRICITY":0.0002184,"INCLINATION":87.8926,"RA_OF_ASC_NODE":299.8697,"ARG_OF_PERICENTER":89.3763,"MEAN_ANOMALY":270.7618,"EPHEMERIS_TYPE":0,"CLASSIFICATION_TYPE":"U","NORAD_CAT_ID":48238,"ELEMENT_SET_NO":999,"REV_AT_EPOCH":24161,"BSTAR":-0.0005468300000000001,"MEAN_MOTION_DOT":-1.9e-06,"MEAN_MOTION_DDOT":0.0},{"OBJECT_NAME":"ONEWEB-0191","OBJECT_ID":"2021-031AF","EPOCH":"2026-04-27T05:36:56.953728","MEAN_MOTION":13.14503343,"ECCENTRICITY":0.0001743,"INCLINATION":87.8928,"RA_OF_ASC_NODE":299.8643,"ARG_OF_PERICENTER":98.1916,"MEAN_ANOMALY":261.9412,"EPHEMERIS_TYPE":0,"CLASSIFICATION_TYPE":"U","NORAD_CAT_ID":48239,"ELEMENT_SET_NO":999,"REV_AT_EPOCH":24147,"BSTAR":-0.00046431,"MEAN_MOTION_DOT":-1.59e-06,"MEAN_MOTION_DDOT":0.0},{"OBJECT_NAME":"ONEWEB-0195","OBJECT_ID":"2021-031AG","EPOCH":"2026-04-27T05:03:50.888160","MEAN_MOTION":13.14502012,"ECCENTRICITY":0.0001468,"INCLINATION":87.8938,"RA_OF_ASC_NODE":299.8672,"ARG_OF_PERICENTER":80.0465,"MEAN_ANOMALY":280.083,"EPHEMERIS_TYPE":0,"CLASSIFICATION_TYPE":"U","NORAD_CAT_ID":48240,"ELEMENT_SET_NO":999,"REV_AT_EPOCH":24145,"BSTAR":-0.00032143,"MEAN_MOTION_DOT":-1.06e-06,"MEAN_MOTION_DDOT":0.0},{"OBJECT_NAME":"ONEWEB-0201","OBJECT_ID":"2021-031AH","EPOCH":"2026-04-27T04:46:53.815008","MEAN_MOTION":13.14504291,"ECCENTRICITY":0.0001393,"INCLINATION":87.8918,"RA_OF_ASC_NODE":299.8921,"ARG_OF_PERICENTER":102.5351,"MEAN_ANOMALY":257.5935,"EPHEMERIS_TYPE":0,"CLASSIFICATION_TYPE":"U","NORAD_CAT_ID":48241,"ELEMENT_SET_NO":999,"REV_AT_EPOCH":24168,"BSTAR":0.0004063,"MEAN_MOTION_DOT":1.63e-06,"MEAN_MOTION_DDOT":0.0},{"OBJECT_NAME":"ONEWEB-0207","OBJECT_ID":"2021-031AJ","EPOCH":"2026-04-27T06:07:46.326720","MEAN_MOTION":13.14503247,"ECCENTRICITY":0.0001569,"INCLINATION":87.8936,"RA_OF_ASC_NODE":299.8604,"ARG_OF_PERICENTER":99.7087,"MEAN_ANOMALY":260.422,"EPHEMERIS_TYPE":0,"CLASSIFICATION_TYPE":"U","NORAD_CAT_ID":48242,"ELEMENT_SET_NO":999,"REV_AT_EPOCH":24160,"BSTAR":0.00063561,"MEAN_MOTION_DOT":2.48e-06,"MEAN_MOTION_DDOT":0.0},{"OBJECT_NAME":"ONEWEB-0208","OBJECT_ID":"2021-031AK","EPOCH":"2026-04-27T05:41:31.064640","MEAN_MOTION":13.14499078,"ECCENTRICITY":0.000155,"INCLINATION":87.8927,"RA_OF_ASC_NODE":299.8731,"ARG_OF_PERICENTER":80.7436,"MEAN_ANOMALY":279.3869,"EPHEMERIS_TYPE":0,"CLASSIFICATION_TYPE":"U","NORAD_CAT_ID":48243,"ELEMENT_SET_NO":999,"REV_AT_EPOCH":24161,"BSTAR":-0.00028264,"MEAN_MOTION_DOT":-9.2e-07,"MEAN_MOTION_DDOT":0.0},{"OBJECT_NAME":"ONEWEB-0200","OBJECT_ID":"2021-031AL","EPOCH":"2026-04-27T04:48:59.487264","MEAN_MOTION":13.14502357,"ECCENTRICITY":0.0001621,"INCLINATION":87.8925,"RA_OF_ASC_NODE":299.8676,"ARG_OF_PERICENTER":90.1452,"MEAN_ANOMALY":269.9863,"EPHEMERIS_TYPE":0,"CLASSIFICATION_TYPE":"U","NORAD_CAT_ID":48244,"ELEMENT_SET_NO":999,"REV_AT_EPOCH":24153,"BSTAR":0.0001201,"MEAN_MOTION_DOT":5.7e-07,"MEAN_MOTION_DDOT":0.0}]